[{"OBJECT_NAME":"FLOCK 4G-22","OBJECT_ID":"2025-009AN","EPOCH":"2026-04-05T03:43:46.739712","MEAN_MOTION":15.27902332,"ECCENTRICITY":0.00028815,"INCLINATION":97.402,"RA_OF_ASC_NODE":177.6035,"ARG_OF_PERICENTER":163.8174,"MEAN_ANOMALY":196.3158,"EPHEMERIS_TYPE":0,"CLASSIFICATION_TYPE":"U","NORAD_CAT_ID":62645,"ELEMENT_SET_NO":999,"REV_AT_EPOCH":6776,"BSTAR":0.00056279104,"MEAN_MOTION_DOT":0.00015271,"MEAN_MOTION_DDOT":0},{"OBJECT_NAME":"FLOCK 4G-25","OBJECT_ID":"2025-009AP","EPOCH":"2026-04-05T04:58:40.986912","MEAN_MOTION":15.28082554,"ECCENTRICITY":0.00022971,"INCLINATION":97.4022,"RA_OF_ASC_NODE":177.6954,"ARG_OF_PERICENTER":166.191,"MEAN_ANOMALY":193.9393,"EPHEMERIS_TYPE":0,"CLASSIFICATION_TYPE":"U","NORAD_CAT_ID":62646,"ELEMENT_SET_NO":999,"REV_AT_EPOCH":6777,"BSTAR":0.00050752817,"MEAN_MOTION_DOT":0.00013836,"MEAN_MOTION_DDOT":0},{"OBJECT_NAME":"FLOCK 4G-23","OBJECT_ID":"2025-009AQ","EPOCH":"2026-04-05T04:20:38.094144","MEAN_MOTION":15.27887778,"ECCENTRICITY":0.0001843,"INCLINATION":97.3952,"RA_OF_ASC_NODE":177.201,"ARG_OF_PERICENTER":178.2652,"MEAN_ANOMALY":181.8594,"EPHEMERIS_TYPE":0,"CLASSIFICATION_TYPE":"U","NORAD_CAT_ID":62647,"ELEMENT_SET_NO":999,"REV_AT_EPOCH":6776,"BSTAR":0.00048333695,"MEAN_MOTION_DOT":0.00013094,"MEAN_MOTION_DDOT":0},{"OBJECT_NAME":"FLOCK 4G-34","OBJECT_ID":"2025-009AT","EPOCH":"2026-04-05T04:45:27.493632","MEAN_MOTION":15.27830248,"ECCENTRICITY":0.00021818,"INCLINATION":97.3974,"RA_OF_ASC_NODE":177.2727,"ARG_OF_PERICENTER":162.9988,"MEAN_ANOMALY":197.1325,"EPHEMERIS_TYPE":0,"CLASSIFICATION_TYPE":"U","NORAD_CAT_ID":62650,"ELEMENT_SET_NO":999,"REV_AT_EPOCH":6776,"BSTAR":0.00054015988,"MEAN_MOTION_DOT":0.0001462,"MEAN_MOTION_DDOT":0},{"OBJECT_NAME":"FLOCK 4G-21","OBJECT_ID":"2025-009AU","EPOCH":"2026-04-05T03:54:18.720288","MEAN_MOTION":15.29138338,"ECCENTRICITY":0.00020997,"INCLINATION":97.4005,"RA_OF_ASC_NODE":177.9454,"ARG_OF_PERICENTER":165.9078,"MEAN_ANOMALY":194.2221,"EPHEMERIS_TYPE":0,"CLASSIFICATION_TYPE":"U","NORAD_CAT_ID":62651,"ELEMENT_SET_NO":999,"REV_AT_EPOCH":6779,"BSTAR":0.00059383689,"MEAN_MOTION_DOT":0.0001674,"MEAN_MOTION_DDOT":0},{"OBJECT_NAME":"FLOCK 4G-31","OBJECT_ID":"2025-009AV","EPOCH":"2026-04-05T03:36:50.337504","MEAN_MOTION":15.27679051,"ECCENTRICITY":0.0001711,"INCLINATION":97.3981,"RA_OF_ASC_NODE":177.2182,"ARG_OF_PERICENTER":159.5254,"MEAN_ANOMALY":200.6054,"EPHEMERIS_TYPE":0,"CLASSIFICATION_TYPE":"U","NORAD_CAT_ID":62652,"ELEMENT_SET_NO":999,"REV_AT_EPOCH":6775,"BSTAR":0.00056680847,"MEAN_MOTION_DOT":0.00015275,"MEAN_MOTION_DDOT":0},{"OBJECT_NAME":"FLOCK 4G-4","OBJECT_ID":"2025-009BC","EPOCH":"2026-04-05T05:24:47.238336","MEAN_MOTION":15.2746892,"ECCENTRICITY":0.00022487,"INCLINATION":97.3966,"RA_OF_ASC_NODE":177.0431,"ARG_OF_PERICENTER":185.7048,"MEAN_ANOMALY":174.4166,"EPHEMERIS_TYPE":0,"CLASSIFICATION_TYPE":"U","NORAD_CAT_ID":62659,"ELEMENT_SET_NO":999,"REV_AT_EPOCH":12536,"BSTAR":0.00054237975,"MEAN_MOTION_DOT":0.00014519,"MEAN_MOTION_DDOT":0},{"OBJECT_NAME":"FLOCK 4G-6","OBJECT_ID":"2025-009BD","EPOCH":"2026-04-05T04:06:25.610400","MEAN_MOTION":15.28193208,"ECCENTRICITY":0.00027857,"INCLINATION":97.3955,"RA_OF_ASC_NODE":177.0533,"ARG_OF_PERICENTER":205.814,"MEAN_ANOMALY":154.2961,"EPHEMERIS_TYPE":0,"CLASSIFICATION_TYPE":"U","NORAD_CAT_ID":62660,"ELEMENT_SET_NO":999,"REV_AT_EPOCH":12534,"BSTAR":0.00061618288,"MEAN_MOTION_DOT":0.00016879,"MEAN_MOTION_DDOT":0},{"OBJECT_NAME":"FLOCK 4G-2","OBJECT_ID":"2025-009BE","EPOCH":"2026-04-05T04:24:43.408800","MEAN_MOTION":15.28436366,"ECCENTRICITY":0.000373,"INCLINATION":97.4022,"RA_OF_ASC_NODE":177.5748,"ARG_OF_PERICENTER":203.4914,"MEAN_ANOMALY":156.6156,"EPHEMERIS_TYPE":0,"CLASSIFICATION_TYPE":"U","NORAD_CAT_ID":62661,"ELEMENT_SET_NO":999,"REV_AT_EPOCH":12537,"BSTAR":0.00058525537,"MEAN_MOTION_DOT":0.00016147,"MEAN_MOTION_DDOT":0},{"OBJECT_NAME":"FLOCK 4G-5","OBJECT_ID":"2025-009BG","EPOCH":"2026-04-05T03:48:09.566784","MEAN_MOTION":15.29273887,"ECCENTRICITY":0.00033826,"INCLINATION":97.4037,"RA_OF_ASC_NODE":177.8218,"ARG_OF_PERICENTER":181.3056,"MEAN_ANOMALY":178.8176,"EPHEMERIS_TYPE":0,"CLASSIFICATION_TYPE":"U","NORAD_CAT_ID":62663,"ELEMENT_SET_NO":999,"REV_AT_EPOCH":6777,"BSTAR":0.00044656379,"MEAN_MOTION_DOT":0.00012617,"MEAN_MOTION_DDOT":0},{"OBJECT_NAME":"FLOCK 4G-1","OBJECT_ID":"2025-009BK","EPOCH":"2026-04-05T03:42:54.927360","MEAN_MOTION":15.28186361,"ECCENTRICITY":0.00039811,"INCLINATION":97.4035,"RA_OF_ASC_NODE":177.5375,"ARG_OF_PERICENTER":202.1921,"MEAN_ANOMALY":157.9146,"EPHEMERIS_TYPE":0,"CLASSIFICATION_TYPE":"U","NORAD_CAT_ID":62666,"ELEMENT_SET_NO":999,"REV_AT_EPOCH":6775,"BSTAR":0.0005714647,"MEAN_MOTION_DOT":0.00015644,"MEAN_MOTION_DDOT":0},{"OBJECT_NAME":"FLOCK 4G-14","OBJECT_ID":"2025-009BL","EPOCH":"2026-04-05T03:48:48.810528","MEAN_MOTION":15.27829732,"ECCENTRICITY":0.00042396,"INCLINATION":97.4038,"RA_OF_ASC_NODE":177.3988,"ARG_OF_PERICENTER":194.5928,"MEAN_ANOMALY":165.519,"EPHEMERIS_TYPE":0,"CLASSIFICATION_TYPE":"U","NORAD_CAT_ID":62667,"ELEMENT_SET_NO":999,"REV_AT_EPOCH":6774,"BSTAR":0.00056466918,"MEAN_MOTION_DOT":0.0001529,"MEAN_MOTION_DDOT":0},{"OBJECT_NAME":"FLOCK 4G-10","OBJECT_ID":"2025-009BP","EPOCH":"2026-04-05T04:10:38.684640","MEAN_MOTION":15.27857752,"ECCENTRICITY":0.00038602,"INCLINATION":97.3937,"RA_OF_ASC_NODE":176.8347,"ARG_OF_PERICENTER":214.1823,"MEAN_ANOMALY":145.9168,"EPHEMERIS_TYPE":0,"CLASSIFICATION_TYPE":"U","NORAD_CAT_ID":62670,"ELEMENT_SET_NO":999,"REV_AT_EPOCH":12538,"BSTAR":0.00058331189,"MEAN_MOTION_DOT":0.00015811,"MEAN_MOTION_DDOT":0},{"OBJECT_NAME":"FLOCK 4G-36","OBJECT_ID":"2025-009BU","EPOCH":"2026-04-05T04:07:16.328928","MEAN_MOTION":15.27959525,"ECCENTRICITY":0.00043224,"INCLINATION":97.4025,"RA_OF_ASC_NODE":177.33,"ARG_OF_PERICENTER":201.2873,"MEAN_ANOMALY":158.8187,"EPHEMERIS_TYPE":0,"CLASSIFICATION_TYPE":"U","NORAD_CAT_ID":62675,"ELEMENT_SET_NO":999,"REV_AT_EPOCH":6774,"BSTAR":0.00060834574,"MEAN_MOTION_DOT":0.00016546,"MEAN_MOTION_DDOT":0},{"OBJECT_NAME":"FLOCK 4G-15","OBJECT_ID":"2025-009BX","EPOCH":"2026-04-05T04:21:30.602880","MEAN_MOTION":15.27976486,"ECCENTRICITY":0.00045935,"INCLINATION":97.4027,"RA_OF_ASC_NODE":177.4729,"ARG_OF_PERICENTER":198.5081,"MEAN_ANOMALY":161.5992,"EPHEMERIS_TYPE":0,"CLASSIFICATION_TYPE":"U","NORAD_CAT_ID":62678,"ELEMENT_SET_NO":999,"REV_AT_EPOCH":12539,"BSTAR":0.00049951934,"MEAN_MOTION_DOT":0.00013575,"MEAN_MOTION_DDOT":0},{"OBJECT_NAME":"FLOCK 4G-30","OBJECT_ID":"2025-009BY","EPOCH":"2026-04-05T04:08:15.329760","MEAN_MOTION":15.27988407,"ECCENTRICITY":0.00039567,"INCLINATION":97.3938,"RA_OF_ASC_NODE":176.8506,"ARG_OF_PERICENTER":217.4504,"MEAN_ANOMALY":142.646,"EPHEMERIS_TYPE":0,"CLASSIFICATION_TYPE":"U","NORAD_CAT_ID":62679,"ELEMENT_SET_NO":999,"REV_AT_EPOCH":12538,"BSTAR":0.0005083018,"MEAN_MOTION_DOT":0.0001382,"MEAN_MOTION_DDOT":0}]
